{
  "fetched_at": "2026-05-18T14:52:10.827029+00:00",
  "satellites": {
    "57166": {
      "name": "Meteor M2-3",
      "tle_line1": "1 57166U 23091A   26138.23696801  .00000001  00000+0  19102-4 0  9992",
      "tle_line2": "2 57166  98.6099 193.8247 0002810 251.4201 108.6672 14.24043994150251"
    },
    "59051": {
      "name": "Meteor M2-4",
      "tle_line1": "1 59051U 24039A   26138.14735110 -.00000008  00000+0  16129-4 0  9991",
      "tle_line2": "2 59051  98.6995  97.8263 0005917 255.2568 104.7954 14.22426182114994"
    },
    "38771": {
      "name": "MetOp-B",
      "tle_line1": "1 38771U 12049A   26138.20282691  .00000067  00000+0  50401-4 0  9998",
      "tle_line2": "2 38771  98.6524 190.2971 0003475  82.3440 277.8132 14.21423705709006"
    },
    "43689": {
      "name": "MetOp-C",
      "tle_line1": "1 43689U 18087A   26138.15330927  .00000071  00000+0  52258-4 0  9997",
      "tle_line2": "2 43689  98.6659 198.3030 0000440 144.2940 215.8267 14.21503219390563"
    },
    "60543": {
      "name": "Arctic Weather Satellite",
      "tle_line1": "1 60543U 24149CD  26138.13112191  .00000531  00000+0  60969-4 0  9999",
      "tle_line2": "2 60543  97.6809 209.4540 0002075 165.8522 194.2754 14.89800983 94821"
    }
  }
}